[
  {
    "OBJECT_NAME": "STARLINK-1710",
    "OBJECT_ID": "20062F",
    "EPOCH": "2025-11-11T08:00:03.000384",
    "MEAN_MOTION": 15.47020358,
    "ECCENTRICITY": 0.0010708,
    "INCLINATION": 53.0461,
    "RA_OF_ASC_NODE": 143.2488,
    "ARG_OF_PERICENTER": 128.7969,
    "MEAN_ANOMALY": 21.3214,
    "EPHEMERIS_TYPE": 0,
    "CLASSIFICATION_TYPE": "U",
    "NORAD_CAT_ID": 46330,
    "ELEMENT_SET_NO": 999,
    "REV_AT_EPOCH": 590,
    "BSTAR": 0.0039386,
    "MEAN_MOTION_DOT": 0.00207654,
    "MEAN_MOTION_DDOT": 0.0,
    "TLE_LINE1": "1 46330U 20062F   25315.33336806  .00207654  00000+0  39386-2 0  9998",
    "TLE_LINE2": "2 46330  53.0461 143.2488 0010708 128.7969  21.3214 15.47020358  5907",
    "COMMENT": "Grouped by shell and plane from TLE"
  },
  {
    "OBJECT_NAME": "STARLINK-1738",
    "OBJECT_ID": "20062M",
    "EPOCH": "2025-11-11T05:54:53.852832",
    "MEAN_MOTION": 15.4567572,
    "ECCENTRICITY": 0.0014019,
    "INCLINATION": 53.0479,
    "RA_OF_ASC_NODE": 144.2413,
    "ARG_OF_PERICENTER": 99.2823,
    "MEAN_ANOMALY": 260.9769,
    "EPHEMERIS_TYPE": 0,
    "CLASSIFICATION_TYPE": "U",
    "NORAD_CAT_ID": 46336,
    "ELEMENT_SET_NO": 999,
    "REV_AT_EPOCH": 28707,
    "BSTAR": 0.00099264,
    "MEAN_MOTION_DOT": 0.00048707,
    "MEAN_MOTION_DDOT": 0.0,
    "TLE_LINE1": "1 46336U 20062M   25315.24645663  .00048707  00000+0  99264-3 0  9992",
    "TLE_LINE2": "2 46336  53.0479 144.2413 0014019  99.2823 260.9769 15.45675720287074",
    "COMMENT": "Grouped by shell and plane from TLE"
  },
  {
    "OBJECT_NAME": "STARLINK-1553",
    "OBJECT_ID": "20062Z",
    "EPOCH": "2025-11-10T22:29:36.160512",
    "MEAN_MOTION": 15.28702712,
    "ECCENTRICITY": 0.0009285,
    "INCLINATION": 53.0396,
    "RA_OF_ASC_NODE": 142.6924,
    "ARG_OF_PERICENTER": 129.9119,
    "MEAN_ANOMALY": 230.2697,
    "EPHEMERIS_TYPE": 0,
    "CLASSIFICATION_TYPE": "U",
    "NORAD_CAT_ID": 46348,
    "ELEMENT_SET_NO": 999,
    "REV_AT_EPOCH": 28707,
    "BSTAR": 0.0025417,
    "MEAN_MOTION_DOT": 0.0007232,
    "MEAN_MOTION_DDOT": 0.0,
    "TLE_LINE1": "1 46348U 20062Z   25314.93722408  .00072320  00000+0  25417-2 0  9999",
    "TLE_LINE2": "2 46348  53.0396 142.6924 0009285 129.9119 230.2697 15.28702712287075",
    "COMMENT": "Grouped by shell and plane from TLE"
  },
  {
    "OBJECT_NAME": "STARLINK-2019",
    "OBJECT_ID": "21012X",
    "EPOCH": "2025-11-11T06:09:48.379680",
    "MEAN_MOTION": 15.29621258,
    "ECCENTRICITY": 0.0001888,
    "INCLINATION": 53.0567,
    "RA_OF_ASC_NODE": 145.5917,
    "ARG_OF_PERICENTER": 127.5363,
    "MEAN_ANOMALY": 232.5808,
    "EPHEMERIS_TYPE": 0,
    "CLASSIFICATION_TYPE": "U",
    "NORAD_CAT_ID": 47641,
    "ELEMENT_SET_NO": 999,
    "REV_AT_EPOCH": 26348,
    "BSTAR": 0.0028232,
    "MEAN_MOTION_DOT": 0.00082701,
    "MEAN_MOTION_DDOT": 0.0,
    "TLE_LINE1": "1 47641U 21012X   25315.25680995  .00082701  00000+0  28232-2 0  9994",
    "TLE_LINE2": "2 47641  53.0567 145.5917 0001888 127.5363 232.5808 15.29621258263486",
    "COMMENT": "Grouped by shell and plane from TLE"
  },
  {
    "OBJECT_NAME": "STARLINK-3083",
    "OBJECT_ID": "21082AE",
    "EPOCH": "2025-11-10T22:51:04.146912",
    "MEAN_MOTION": 15.49432176,
    "ECCENTRICITY": 0.0002605,
    "INCLINATION": 69.9766,
    "RA_OF_ASC_NODE": 141.4033,
    "ARG_OF_PERICENTER": 334.7931,
    "MEAN_ANOMALY": 25.3127,
    "EPHEMERIS_TYPE": 0,
    "CLASSIFICATION_TYPE": "U",
    "NORAD_CAT_ID": 49158,
    "ELEMENT_SET_NO": 999,
    "REV_AT_EPOCH": 23157,
    "BSTAR": 0.0013537,
    "MEAN_MOTION_DOT": 0.00075189,
    "MEAN_MOTION_DDOT": 0.0,
    "TLE_LINE1": "1 49158U 21082AE  25314.95213133  .00075189  00000+0  13537-2 0  9992",
    "TLE_LINE2": "2 49158  69.9766 141.4033 0002605 334.7931  25.3127 15.49432176231571",
    "COMMENT": "Grouped by shell and plane from TLE"
  },
  {
    "OBJECT_NAME": "STARLINK-30183",
    "OBJECT_ID": "23105G",
    "EPOCH": "2025-11-11T00:00:02.999808",
    "MEAN_MOTION": 15.46205454,
    "ECCENTRICITY": 0.0034506,
    "INCLINATION": 42.9859,
    "RA_OF_ASC_NODE": 144.0314,
    "ARG_OF_PERICENTER": 269.8489,
    "MEAN_ANOMALY": 130.8159,
    "EPHEMERIS_TYPE": 0,
    "CLASSIFICATION_TYPE": "U",
    "NORAD_CAT_ID": 57436,
    "ELEMENT_SET_NO": 999,
    "REV_AT_EPOCH": 585,
    "BSTAR": 0.0034863,
    "MEAN_MOTION_DOT": 0.00183292,
    "MEAN_MOTION_DDOT": 0.0,
    "TLE_LINE1": "1 57436U 23105G   25315.00003472  .00183292  00000+0  34863-2 0  9998",
    "TLE_LINE2": "2 57436  42.9859 144.0314 0034506 269.8489 130.8159 15.46205454  5856",
    "COMMENT": "Grouped by shell and plane from TLE"
  },
  {
    "OBJECT_NAME": "STARLINK-30527",
    "OBJECT_ID": "23153S",
    "EPOCH": "2025-11-10T23:22:31.745856",
    "MEAN_MOTION": 15.27579962,
    "ECCENTRICITY": 9.54e-05,
    "INCLINATION": 42.9991,
    "RA_OF_ASC_NODE": 148.8223,
    "ARG_OF_PERICENTER": 266.3502,
    "MEAN_ANOMALY": 93.724,
    "EPHEMERIS_TYPE": 0,
    "CLASSIFICATION_TYPE": "U",
    "NORAD_CAT_ID": 58007,
    "ELEMENT_SET_NO": 999,
    "REV_AT_EPOCH": 11930,
    "BSTAR": 9.4838e-05,
    "MEAN_MOTION_DOT": 2.349e-05,
    "MEAN_MOTION_DDOT": 0.0,
    "TLE_LINE1": "1 58007U 23153S   25314.97397854  .00002349  00000+0  94838-4 0  9994",
    "TLE_LINE2": "2 58007  42.9991 148.8223 0000954 266.3502  93.7240 15.27579962119308",
    "COMMENT": "Grouped by shell and plane from TLE"
  },
  {
    "OBJECT_NAME": "STARLINK-31317",
    "OBJECT_ID": "24027A",
    "EPOCH": "2025-11-10T21:45:23.079168",
    "MEAN_MOTION": 15.30202461,
    "ECCENTRICITY": 0.0001108,
    "INCLINATION": 53.1594,
    "RA_OF_ASC_NODE": 141.2482,
    "ARG_OF_PERICENTER": 109.5898,
    "MEAN_ANOMALY": 250.5222,
    "EPHEMERIS_TYPE": 0,
    "CLASSIFICATION_TYPE": "U",
    "NORAD_CAT_ID": 58931,
    "ELEMENT_SET_NO": 999,
    "REV_AT_EPOCH": 9898,
    "BSTAR": 0.0,
    "MEAN_MOTION_DOT": -1.224e-05,
    "MEAN_MOTION_DDOT": 0.0,
    "TLE_LINE1": "1 58931U 24027A   25314.90651712 -.00001224  00000+0 -29215-4 0  9990",
    "TLE_LINE2": "2 58931  53.1594 141.2482 0001108 109.5898 250.5222 15.30202461 98983",
    "COMMENT": "Grouped by shell and plane from TLE"
  },
  {
    "OBJECT_NAME": "STARLINK-31350",
    "OBJECT_ID": "24027C",
    "EPOCH": "2025-11-10T21:36:16.013376",
    "MEAN_MOTION": 15.30206915,
    "ECCENTRICITY": 0.0001151,
    "INCLINATION": 53.1586,
    "RA_OF_ASC_NODE": 141.2127,
    "ARG_OF_PERICENTER": 88.669,
    "MEAN_ANOMALY": 271.4443,
    "EPHEMERIS_TYPE": 0,
    "CLASSIFICATION_TYPE": "U",
    "NORAD_CAT_ID": 58933,
    "ELEMENT_SET_NO": 999,
    "REV_AT_EPOCH": 9914,
    "BSTAR": 0.0,
    "MEAN_MOTION_DOT": -2.499e-05,
    "MEAN_MOTION_DDOT": 0.0,
    "TLE_LINE1": "1 58933U 24027C   25314.90018534 -.00002499  00000+0 -72257-4 0  9990",
    "TLE_LINE2": "2 58933  53.1586 141.2127 0001151  88.6690 271.4443 15.30206915 99141",
    "COMMENT": "Grouped by shell and plane from TLE"
  },
  {
    "OBJECT_NAME": "STARLINK-31362",
    "OBJECT_ID": "24027E",
    "EPOCH": "2025-11-10T19:31:59.432448",
    "MEAN_MOTION": 15.30186036,
    "ECCENTRICITY": 0.0002041,
    "INCLINATION": 53.1575,
    "RA_OF_ASC_NODE": 142.0919,
    "ARG_OF_PERICENTER": 102.354,
    "MEAN_ANOMALY": 257.7689,
    "EPHEMERIS_TYPE": 0,
    "CLASSIFICATION_TYPE": "U",
    "NORAD_CAT_ID": 58935,
    "ELEMENT_SET_NO": 999,
    "REV_AT_EPOCH": 9912,
    "BSTAR": 0.00011269000000000001,
    "MEAN_MOTION_DOT": 2.978e-05,
    "MEAN_MOTION_DDOT": 0.0,
    "TLE_LINE1": "1 58935U 24027E   25314.81388232  .00002978  00000+0  11269-3 0  9992",
    "TLE_LINE2": "2 58935  53.1575 142.0919 0002041 102.3540 257.7689 15.30186036 99124",
    "COMMENT": "Grouped by shell and plane from TLE"
  },
  {
    "OBJECT_NAME": "STARLINK-31383",
    "OBJECT_ID": "24027F",
    "EPOCH": "2025-11-10T13:14:14.753760",
    "MEAN_MOTION": 15.30225322,
    "ECCENTRICITY": 0.0001743,
    "INCLINATION": 53.1606,
    "RA_OF_ASC_NODE": 143.2981,
    "ARG_OF_PERICENTER": 94.4615,
    "MEAN_ANOMALY": 265.6585,
    "EPHEMERIS_TYPE": 0,
    "CLASSIFICATION_TYPE": "U",
    "NORAD_CAT_ID": 58936,
    "ELEMENT_SET_NO": 999,
    "REV_AT_EPOCH": 9908,
    "BSTAR": 0.0,
    "MEAN_MOTION_DOT": -4.105e-05,
    "MEAN_MOTION_DDOT": 0.0,
    "TLE_LINE1": "1 58936U 24027F   25314.55155965 -.00004105  00000+0 -12641-3 0  9990",
    "TLE_LINE2": "2 58936  53.1606 143.2981 0001743  94.4615 265.6585 15.30225322 99084",
    "COMMENT": "Grouped by shell and plane from TLE"
  },
  {
    "OBJECT_NAME": "STARLINK-31390",
    "OBJECT_ID": "24027G",
    "EPOCH": "2025-11-10T13:08:10.188960",
    "MEAN_MOTION": 15.30205632,
    "ECCENTRICITY": 0.0001599,
    "INCLINATION": 53.1589,
    "RA_OF_ASC_NODE": 143.2702,
    "ARG_OF_PERICENTER": 93.9607,
    "MEAN_ANOMALY": 266.1577,
    "EPHEMERIS_TYPE": 0,
    "CLASSIFICATION_TYPE": "U",
    "NORAD_CAT_ID": 58937,
    "ELEMENT_SET_NO": 999,
    "REV_AT_EPOCH": 9908,
    "BSTAR": 1.9353000000000003e-05,
    "MEAN_MOTION_DOT": 2.14e-06,
    "MEAN_MOTION_DDOT": 0.0,
    "TLE_LINE1": "1 58937U 24027G   25314.54734015  .00000214  00000+0  19353-4 0  9992",
    "TLE_LINE2": "2 58937  53.1589 143.2702 0001599  93.9607 266.1577 15.30205632 99089",
    "COMMENT": "Grouped by shell and plane from TLE"
  },
  {
    "OBJECT_NAME": "STARLINK-31377",
    "OBJECT_ID": "24027H",
    "EPOCH": "2025-11-10T19:28:57.530208",
    "MEAN_MOTION": 15.30156096,
    "ECCENTRICITY": 0.0002203,
    "INCLINATION": 53.158,
    "RA_OF_ASC_NODE": 142.078,
    "ARG_OF_PERICENTER": 98.4426,
    "MEAN_ANOMALY": 261.6825,
    "EPHEMERIS_TYPE": 0,
    "CLASSIFICATION_TYPE": "U",
    "NORAD_CAT_ID": 58938,
    "ELEMENT_SET_NO": 999,
    "REV_AT_EPOCH": 9912,
    "BSTAR": 0.00034226,
    "MEAN_MOTION_DOT": 9.777e-05,
    "MEAN_MOTION_DDOT": 0.0,
    "TLE_LINE1": "1 58938U 24027H   25314.81177697  .00009777  00000+0  34226-3 0  9998",
    "TLE_LINE2": "2 58938  53.1580 142.0780 0002203  98.4426 261.6825 15.30156096 99126",
    "COMMENT": "Grouped by shell and plane from TLE"
  }
]